tleArray_g = [ {"id": 34003, "Line1": "1 34003U 93036GN  21274.57574586  .00000148  00000-0  12570-3 0  9995", "Line2": "2 34003  74.0820 323.4785 0299190  71.3872 291.9487 13.75438926632912"}, {"id": 34004, "Line1": "1 34004U 93036GP  21274.71460872  .00000852  00000-0  30911-3 0  9995", "Line2": "2 34004  74.0376 264.8245 0043904 296.6910  62.9750 14.34357083659663"}, {"id": 34005, "Line1": "1 34005U 93036GQ  21274.85395233  .00000064  00000-0  29344-4 0  9993", "Line2": "2 34005  74.0469 160.9937 0021778 299.3963 138.1122 14.38600259663253"}, {"id": 34006, "Line1": "1 34006U 93036GR  21274.82216660  .00001659  00000-0  48583-3 0  9993", "Line2": "2 34006  74.0716 179.4511 0028516 199.3775 225.9777 14.44478584663105"}, {"id": 34007, "Line1": "1 34007U 93036GS  21274.73559779  .00000847  00000-0  21640-3 0  9998", "Line2": "2 34007  74.0261  16.9901 0058453 171.5066 188.7099 14.51082561667658"}, {"id": 34008, "Line1": "1 34008U 93036GT  21274.87920677  .00000086  00000-0  41866-4 0  9991", "Line2": "2 34008  74.0329 248.0061 0025423 257.4989 125.9004 14.31746462660183"}, {"id": 34009, "Line1": "1 34009U 93036GU  21274.59622253  .00000112  00000-0  51548-4 0  9998", "Line2": "2 34009  74.0356 254.0544 0028973 335.1155 186.9884 14.31549947659965"}, {"id": 34010, "Line1": "1 34010U 93036GV  21274.73398716  .00001409  00000-0  33883-3 0  9991", "Line2": "2 34010  74.0256  22.6261 0025491 172.9172 187.2356 14.54109259667497"}, {"id": 34011, "Line1": "1 34011U 93036GW  21274.40711067  .00000691  00000-0  26351-3 0  9998", "Line2": "2 34011  74.0165 267.4199 0045362 354.7245   5.3420 14.32124679659094"}, {"id": 34012, "Line1": "1 34012U 93036GX  21274.81701449  .00009107  00000-0  16853-2 0  9993", "Line2": "2 34012  74.0248 110.3928 0051670 141.6087 218.8777 14.64590574664705"}, {"id": 34013, "Line1": "1 34013U 93036GY  21274.30454849  .00010229  00000-0  14253-2 0  9996", "Line2": "2 34013  74.0182 233.6217 0030152 332.2028  27.7534 14.77524111672332"}, {"id": 34014, "Line1": "1 34014U 93036GZ  21274.94329387  .00000744  00000-0  17763-3 0  9996", "Line2": "2 34014  74.0248 334.6100 0050367 139.1031  35.2306 14.54703528669138"}, {"id": 34015, "Line1": "1 34015U 93036HA  21274.77516244  .00001077  00000-0  32648-3 0  9997", "Line2": "2 34015  74.0311 156.6407 0031892 264.5050 158.6073 14.43184369663216"}, {"id": 34018, "Line1": "1 34018U 93036HD  21274.78896969  .00000265  00000-0  21558-3 0  9992", "Line2": "2 34018  73.8788 163.4664 0271287 120.9117 306.3761 13.78506951635170"}, {"id": 34019, "Line1": "1 34019U 93036HE  21274.91067855  .00000566  00000-0  24437-3 0  9995", "Line2": "2 34019  73.9589 325.8256 0066211 122.1627  52.2112 14.25575494656273"}, {"id": 34020, "Line1": "1 34020U 93036HF  21274.91163148  .00005406  00000-0  82869-3 0  9990", "Line2": "2 34020  74.0362 220.2619 0033860 334.6489  25.3020 14.73513682673055"}, {"id": 34021, "Line1": "1 34021U 93036HG  21274.82799828  .00000338  00000-0  10761-3 0  9992", "Line2": "2 34021  74.0386 109.2872 0022820 270.6803 102.4899 14.43495898664733"}, {"id": 34022, "Line1": "1 34022U 93036HH  21275.07416391  .00000176  00000-0  69494-4 0  9990", "Line2": "2 34022  74.0562 206.6238 0024613 294.6627  78.1820 14.36013287661987"}, {"id": 34023, "Line1": "1 34023U 93036HJ  21275.02937001  .00000260  00000-0  97950-4 0  9994", "Line2": "2 34023  74.0287 195.8464 0020730 302.4362  67.5780 14.36193841661883"}, {"id": 34024, "Line1": "1 34024U 93036HK  21274.63061218  .00000146  00000-0  62542-4 0  9991", "Line2": "2 34024  74.0459 239.7218 0023259 308.8041 226.7487 14.33144752660474"}, {"id": 34026, "Line1": "1 34026U 93036HM  21274.66658726  .00000143  00000-0  14141-3 0  9990", "Line2": "2 34026  73.7703 354.0177 0360057  96.6331  22.5014 13.60422939626524"}, {"id": 34028, "Line1": "1 34028U 93036HP  21274.80589539  .00000250  00000-0  30987-3 0  9998", "Line2": "2 34028  73.8837 173.4406 0552863 207.2313 216.4010 13.18793207607870"}, {"id": 34029, "Line1": "1 34029U 93036HQ  21274.64203159  .00005445  00000-0  47131-3 0  9992", "Line2": "2 34029  73.9435 248.8811 0070123 103.9147 256.9850 14.95488197682176"}, {"id": 34030, "Line1": "1 34030U 93036HR  21274.74835737  .00022346  00000-0  42977-3 0  9990", "Line2": "2 34030  73.9467 141.3988 0061366 294.4563 135.2419 15.45730516696943"}, {"id": 34031, "Line1": "1 34031U 93036HS  21274.65615862  .00000758  00000-0  23203-3 0  9990", "Line2": "2 34031  74.0187 134.5118 0030964 261.7970 159.9973 14.43203454663566"}, {"id": 34032, "Line1": "1 34032U 93036HT  21274.66780784  .00001740  00000-0  47027-3 0  9990", "Line2": "2 34032  74.0339 150.2191 0050767 233.5511 157.3554 14.47825083663281"}, {"id": 34033, "Line1": "1 34033U 93036HU  21274.83366497  .00001509  00000-0  43411-3 0  9997", "Line2": "2 34033  74.0052 182.3222 0064559 199.8827 227.6712 14.44474532661778"}, {"id": 34035, "Line1": "1 34035U 93036HW  21274.84180249  .00001126  00000-0  40666-3 0  9993", "Line2": "2 34035  74.0702 297.8413 0061247 332.2125 201.8837 14.33691395658955"}, {"id": 34036, "Line1": "1 34036U 93036HX  21275.01286166  .00001245  00000-0  37237-3 0  9991", "Line2": "2 34036  74.0457 185.7838 0047759 255.8427 103.7421 14.43321305662446"}, {"id": 34037, "Line1": "1 34037U 93036HY  21274.82366196  .00000352  00000-0  14720-3 0  9992", "Line2": "2 34037  74.0531 319.3805 0059408  25.0718 335.3295 14.28703058657890"}];