OBJECT_NAME,OBJECT_ID,EPOCH,MEAN_MOTION,ECCENTRICITY,INCLINATION,RA_OF_ASC_NODE,ARG_OF_PERICENTER,MEAN_ANOMALY,EPHEMERIS_TYPE,CLASSIFICATION_TYPE,NORAD_CAT_ID,ELEMENT_SET_NO,REV_AT_EPOCH,BSTAR,MEAN_MOTION_DOT,MEAN_MOTION_DDOT
COSMOS 2251 DEB,1993-036GN,2021-10-01T13:49:04.442304,13.75438926,.029919,74.0820,323.4785,71.3872,291.9487,0,U,34003,999,63291,.1257E-3,.148E-5,0
COSMOS 2251 DEB,1993-036GP,2021-10-01T17:09:02.193408,14.34357083,.0043904,74.0376,264.8245,296.6910,62.9750,0,U,34004,999,65966,.30911E-3,.852E-5,0
COSMOS 2251 DEB,1993-036GQ,2021-10-01T20:29:41.481312,14.38600259,.0021778,74.0469,160.9937,299.3963,138.1122,0,U,34005,999,66325,.29344E-4,.64E-6,0
COSMOS 2251 DEB,1993-036GR,2021-10-01T19:43:55.194240,14.44478584,.0028516,74.0716,179.4511,199.3775,225.9777,0,U,34006,999,66310,.48583E-3,.1659E-4,0
COSMOS 2251 DEB,1993-036GS,2021-10-01T17:39:15.649056,14.51082561,.0058453,74.0261,16.9901,171.5066,188.7099,0,U,34007,999,66765,.2164E-3,.847E-5,0
COSMOS 2251 DEB,1993-036GT,2021-10-01T21:06:03.464928,14.31746462,.0025423,74.0329,248.0061,257.4989,125.9004,0,U,34008,999,66018,.41866E-4,.86E-6,0
COSMOS 2251 DEB,1993-036GU,2021-10-01T14:18:33.626592,14.31549947,.0028973,74.0356,254.0544,335.1155,186.9884,0,U,34009,999,65996,.51548E-4,.112E-5,0
COSMOS 2251 DEB,1993-036GV,2021-10-01T17:36:56.490624,14.54109259,.0025491,74.0256,22.6261,172.9172,187.2356,0,U,34010,999,66749,.33883E-3,.1409E-4,0
COSMOS 2251 DEB,1993-036GW,2021-10-01T09:46:14.361888,14.32124679,.0045362,74.0165,267.4199,354.7245,5.3420,0,U,34011,999,65909,.26351E-3,.691E-5,0
COSMOS 2251 DEB,1993-036GX,2021-10-01T19:36:30.051936,14.64590574,.005167,74.0248,110.3928,141.6087,218.8777,0,U,34012,999,66470,.16853E-2,.9107E-4,0
COSMOS 2251 DEB,1993-036GY,2021-10-01T07:18:32.989536,14.77524111,.0030152,74.0182,233.6217,332.2028,27.7534,0,U,34013,999,67233,.14253E-2,.10229E-3,0
COSMOS 2251 DEB,1993-036GZ,2021-10-01T22:38:20.590368,14.54703528,.0050367,74.0248,334.6100,139.1031,35.2306,0,U,34014,999,66913,.17763E-3,.744E-5,0
COSMOS 2251 DEB,1993-036HA,2021-10-01T18:36:14.034816,14.43184369,.0031892,74.0311,156.6407,264.5050,158.6073,0,U,34015,999,66321,.32648E-3,.1077E-4,0
COSMOS 2251 DEB,1993-036HD,2021-10-01T18:56:06.981216,13.78506951,.0271287,73.8788,163.4664,120.9117,306.3761,0,U,34018,999,63517,.21558E-3,.265E-5,0
COSMOS 2251 DEB,1993-036HE,2021-10-01T21:51:22.626720,14.25575494,.0066211,73.9589,325.8256,122.1627,52.2112,0,U,34019,999,65627,.24437E-3,.566E-5,0
COSMOS 2251 DEB,1993-036HF,2021-10-01T21:52:44.959872,14.73513682,.003386,74.0362,220.2619,334.6489,25.3020,0,U,34020,999,67305,.82869E-3,.5406E-4,0
COSMOS 2251 DEB,1993-036HG,2021-10-01T19:52:19.051392,14.43495898,.002282,74.0386,109.2872,270.6803,102.4899,0,U,34021,999,66473,.10761E-3,.338E-5,0
COSMOS 2251 DEB,1993-036HH,2021-10-02T01:46:47.761824,14.36013287,.0024613,74.0562,206.6238,294.6627,78.1820,0,U,34022,999,66198,.69494E-4,.176E-5,0
COSMOS 2251 DEB,1993-036HJ,2021-10-02T00:42:17.568864,14.36193841,.002073,74.0287,195.8464,302.4362,67.5780,0,U,34023,999,66188,.9795E-4,.26E-5,0
COSMOS 2251 DEB,1993-036HK,2021-10-01T15:08:04.892352,14.33144752,.0023259,74.0459,239.7218,308.8041,226.7487,0,U,34024,999,66047,.62542E-4,.146E-5,0
COSMOS 2251 DEB,1993-036HM,2021-10-01T15:59:53.139264,13.60422939,.0360057,73.7703,354.0177,96.6331,22.5014,0,U,34026,999,62652,.14141E-3,.143E-5,0
COSMOS 2251 DEB,1993-036HP,2021-10-01T19:20:29.361696,13.18793207,.0552863,73.8837,173.4406,207.2313,216.4010,0,U,34028,999,60787,.30987E-3,.25E-5,0
COSMOS 2251 DEB,1993-036HQ,2021-10-01T15:24:31.529376,14.95488197,.0070123,73.9435,248.8811,103.9147,256.9850,0,U,34029,999,68217,.47131E-3,.5445E-4,0
COSMOS 2251 DEB,1993-036HR,2021-10-01T17:57:38.076768,15.45730516,.0061366,73.9467,141.3988,294.4563,135.2419,0,U,34030,999,69694,.42977E-3,.22346E-3,0
COSMOS 2251 DEB,1993-036HS,2021-10-01T15:44:52.104768,14.43203454,.0030964,74.0187,134.5118,261.7970,159.9973,0,U,34031,999,66356,.23203E-3,.758E-5,0
COSMOS 2251 DEB,1993-036HT,2021-10-01T16:01:38.597376,14.47825083,.0050767,74.0339,150.2191,233.5511,157.3554,0,U,34032,999,66328,.47027E-3,.174E-4,0
COSMOS 2251 DEB,1993-036HU,2021-10-01T20:00:28.653408,14.44474532,.0064559,74.0052,182.3222,199.8827,227.6712,0,U,34033,999,66177,.43411E-3,.1509E-4,0
COSMOS 2251 DEB,1993-036HW,2021-10-01T20:12:11.735136,14.33691395,.0061247,74.0702,297.8413,332.2125,201.8837,0,U,34035,999,65895,.40666E-3,.1126E-4,0
COSMOS 2251 DEB,1993-036HX,2021-10-02T00:18:31.247424,14.43321305,.0047759,74.0457,185.7838,255.8427,103.7421,0,U,34036,999,66244,.37237E-3,.1245E-4,0
COSMOS 2251 DEB,1993-036HY,2021-10-01T19:46:04.393344,14.28703058,.0059408,74.0531,319.3805,25.0718,335.3295,0,U,34037,999,65789,.1472E-3,.352E-5,0
